0 SL-14 DEB
1 26028U 91068AP  13282.60400646  .00000113  00000-0  71775-3 0  2891
2 26028 082.6997 225.1709 0021439 295.4035 184.1113 12.45498523657127
0 SL-14 DEB
1 26028U 91068AP  13285.57666847  .00000118  00000-0  75145-3 0  2909
2 26028 082.7003 223.3624 0021322 288.6420 193.1359 12.45499460657498
0 SL-14 DEB
1 26028U 91068AP  13287.58437653  .00000146  00000-0  94976-3 0  2918
2 26028 082.7007 222.1410 0021243 284.0719 195.4437 12.45499883657744
0 SL-14 DEB
1 26028U 91068AP  13290.55707414  .00000185  00000-0  12202-2 0  2929
2 26028 082.7008 220.3329 0021173 277.1694 204.7850 12.45500700658117
0 SL-14 DEB
1 26028U 91068AP  13292.78508066  .00000200  00000-0  13216-2 0  2933
2 26028 082.7007 218.9779 0021119 272.0030 114.9876 12.45501578658390
0 SL-14 DEB
1 26028U 91068AP  13295.22306626  .00000174  00000-0  11456-2 0  2948
2 26028 082.7007 217.4952 0021074 266.3663 246.7105 12.45502642658690
